start=new Date('2023-02-20T00:00:00.000Z').valueOf();
sats=[{"BSTAR":"-0.00027609000000","MEAN_ANOMALY":"324.2780","TIME_SYSTEM":"UTC","ARG_OF_PERICENTER":"35.8262","MEAN_MOTION":"15.06364413","EPOCH":"2023-02-19T18:20:42.619488","LAUNCH_DATE":"2020-02-17","MEAN_MOTION_DOT":"-0.00004387","ELEMENT_SET_NO":"999","PERIAPSIS":"546.772","REV_AT_EPOCH":"16656","RA_OF_ASC_NODE":"327.2317","PERIOD":"95.594","OBJECT_ID":"2020-012AW","GP_ID":"226069373","TLE_LINE1":"1 45222U 20012AW  23050.76438217 -.00004387  00000-0 -27609-3 0  9999","OBJECT_TYPE":"PAYLOAD","TLE_LINE2":"2 45222  53.0541 327.2317 0000795  35.8262 324.2780 15.06364413166560","DECAY_DATE":null,"INCLINATION":"53.0541","MEAN_ELEMENT_THEORY":"SGP4","OBJECT_NAME":"STARLINK-1191","CENTER_NAME":"EARTH","SITE":"AFETR","SEMIMAJOR_AXIS":"6925.458","CLASSIFICATION_TYPE":"U","COUNTRY_CODE":"US","MEAN_MOTION_DDOT":"0.0000000000000","APOAPSIS":"547.873","ECCENTRICITY":"0.00007950","EPHEMERIS_TYPE":"0","RCS_SIZE":"LARGE","FILE":"3812615","REF_FRAME":"TEME","NORAD_CAT_ID":"45222"},{"ARG_OF_PERICENTER":"46.6130","MEAN_MOTION":"15.06392397","LAUNCH_DATE":"2020-02-17","EPOCH":"2023-02-19T22:02:14.344512","MEAN_ANOMALY":"313.5009","BSTAR":"0.00038355000000","TIME_SYSTEM":"UTC","GP_ID":"226069739","REV_AT_EPOCH":"16659","PERIAPSIS":"545.985","ELEMENT_SET_NO":"999","MEAN_MOTION_DOT":"0.00005435","RA_OF_ASC_NODE":"326.5203","PERIOD":"95.593","OBJECT_ID":"2020-012AX","SITE":"AFETR","CENTER_NAME":"EARTH","SEMIMAJOR_AXIS":"6925.372","CLASSIFICATION_TYPE":"U","OBJECT_TYPE":"PAYLOAD","TLE_LINE1":"1 45223U 20012AX  23050.91822158  .00005435  00000-0  38355-3 0  9991","DECAY_DATE":null,"TLE_LINE2":"2 45223  53.0574 326.5203 0001807  46.6130 313.5009 15.06392397166592","OBJECT_NAME":"STARLINK-1212","MEAN_ELEMENT_THEORY":"SGP4","INCLINATION":"53.0574","APOAPSIS":"548.488","ECCENTRICITY":"0.00018070","EPHEMERIS_TYPE":"0","REF_FRAME":"TEME","NORAD_CAT_ID":"45223","FILE":"3812622","RCS_SIZE":"LARGE","COUNTRY_CODE":"US","MEAN_MOTION_DDOT":"0.0000000000000"},{"MEAN_MOTION_DOT":"0.00014541","PERIAPSIS":"546.598","REV_AT_EPOCH":"16659","ELEMENT_SET_NO":"999","OBJECT_ID":"2020-012AZ","PERIOD":"95.594","RA_OF_ASC_NODE":"326.4515","GP_ID":"226069485","BSTAR":"0.00099362000000","MEAN_ANOMALY":"285.9562","TIME_SYSTEM":"UTC","ARG_OF_PERICENTER":"74.1535","EPOCH":"2023-02-19T22:30:08.537184","LAUNCH_DATE":"2020-02-17","MEAN_MOTION":"15.06378078","MEAN_MOTION_DDOT":"0.0000000000000","COUNTRY_CODE":"US","ECCENTRICITY":"0.00009860","APOAPSIS":"547.964","RCS_SIZE":"LARGE","FILE":"3812622","REF_FRAME":"TEME","NORAD_CAT_ID":"45225","EPHEMERIS_TYPE":"0","TLE_LINE2":"2 45225  53.0537 326.4515 0000986  74.1535 285.9562 15.06378078166596","DECAY_DATE":null,"TLE_LINE1":"1 45225U 20012AZ  23050.93759881  .00014541  00000-0  99362-3 0  9990","OBJECT_TYPE":"PAYLOAD","MEAN_ELEMENT_THEORY":"SGP4","INCLINATION":"53.0537","OBJECT_NAME":"STARLINK-1215","SITE":"AFETR","CENTER_NAME":"EARTH","CLASSIFICATION_TYPE":"U","SEMIMAJOR_AXIS":"6925.416"},{"INCLINATION":"53.0532","MEAN_ELEMENT_THEORY":"SGP4","OBJECT_NAME":"STARLINK-1217","TLE_LINE1":"1 45226U 20012BA  23050.74592149  .00017750  00000-0  12069-2 0  9995","OBJECT_TYPE":"PAYLOAD","TLE_LINE2":"2 45226  53.0532 327.3124 0001270  86.3399 273.7735 15.06418820166539","DECAY_DATE":null,"SEMIMAJOR_AXIS":"6925.291","CLASSIFICATION_TYPE":"U","CENTER_NAME":"EARTH","SITE":"AFETR","COUNTRY_CODE":"US","MEAN_MOTION_DDOT":"0.0000000000000","EPHEMERIS_TYPE":"0","RCS_SIZE":"LARGE","FILE":"3812622","REF_FRAME":"TEME","NORAD_CAT_ID":"45226","APOAPSIS":"548.035","ECCENTRICITY":"0.00012700","TIME_SYSTEM":"UTC","BSTAR":"0.00120690000000","MEAN_ANOMALY":"273.7735","MEAN_MOTION":"15.06418820","EPOCH":"2023-02-19T17:54:07.616736","LAUNCH_DATE":"2020-02-17","ARG_OF_PERICENTER":"86.3399","RA_OF_ASC_NODE":"327.3124","PERIOD":"95.591","OBJECT_ID":"2020-012BA","MEAN_MOTION_DOT":"0.00017750","PERIAPSIS":"546.276","REV_AT_EPOCH":"16653","ELEMENT_SET_NO":"999","GP_ID":"226069746"},{"APOAPSIS":"548.002","ECCENTRICITY":"0.00010080","EPHEMERIS_TYPE":"0","REF_FRAME":"TEME","NORAD_CAT_ID":"45227","RCS_SIZE":"LARGE","FILE":"3812652","COUNTRY_CODE":"US","MEAN_MOTION_DDOT":"0.0000000000000","CENTER_NAME":"EARTH","SITE":"AFETR","SEMIMAJOR_AXIS":"6925.439","CLASSIFICATION_TYPE":"U","TLE_LINE1":"1 45227U 20012BB  23050.96708142  .00019024  00000-0  12936-2 0  9991","OBJECT_TYPE":"PAYLOAD","DECAY_DATE":null,"TLE_LINE2":"2 45227  53.0519 326.3207 0001008 110.6061 249.5036 15.06370365166561","OBJECT_NAME":"STARLINK-1221","INCLINATION":"53.0519","MEAN_ELEMENT_THEORY":"SGP4","GP_ID":"226069852","PERIAPSIS":"546.606","REV_AT_EPOCH":"16656","ELEMENT_SET_NO":"999","MEAN_MOTION_DOT":"0.00019024","PERIOD":"95.594","RA_OF_ASC_NODE":"326.3207","OBJECT_ID":"2020-012BB","ARG_OF_PERICENTER":"110.6061","MEAN_MOTION":"15.06370365","LAUNCH_DATE":"2020-02-17","EPOCH":"2023-02-19T23:12:35.834688","MEAN_ANOMALY":"249.5036","BSTAR":"0.00129360000000","TIME_SYSTEM":"UTC"},{"PERIAPSIS":"546.406","ELEMENT_SET_NO":"999","REV_AT_EPOCH":"16658","MEAN_MOTION_DOT":"0.00013641","OBJECT_ID":"2020-012BC","PERIOD":"95.593","RA_OF_ASC_NODE":"326.5998","GP_ID":"226069860","MEAN_ANOMALY":"264.8941","BSTAR":"0.00093325000000","TIME_SYSTEM":"UTC","ARG_OF_PERICENTER":"95.2188","LAUNCH_DATE":"2020-02-17","EPOCH":"2023-02-19T21:42:21.976128","MEAN_MOTION":"15.06386189","MEAN_MOTION_DDOT":"0.0000000000000","COUNTRY_CODE":"US","ECCENTRICITY":"0.00012270","APOAPSIS":"548.106","REF_FRAME":"TEME","NORAD_CAT_ID":"45228","RCS_SIZE":"LARGE","FILE":"3812652","EPHEMERIS_TYPE":"0","DECAY_DATE":null,"TLE_LINE2":"2 45228  53.0547 326.5998 0001227  95.2188 264.8941 15.06386189166581","TLE_LINE1":"1 45228U 20012BC  23050.90442102  .00013641  00000-0  93325-3 0  9998","OBJECT_TYPE":"PAYLOAD","OBJECT_NAME":"STARLINK-1222","MEAN_ELEMENT_THEORY":"SGP4","INCLINATION":"53.0547","SITE":"AFETR","CENTER_NAME":"EARTH","CLASSIFICATION_TYPE":"U","SEMIMAJOR_AXIS":"6925.391"},{"PERIAPSIS":"546.372","ELEMENT_SET_NO":"999","REV_AT_EPOCH":"16659","MEAN_MOTION_DOT":"0.00010004","PERIOD":"95.593","RA_OF_ASC_NODE":"326.4652","OBJECT_ID":"2020-012BD","GP_ID":"226070279","MEAN_ANOMALY":"246.0651","BSTAR":"0.00068975000000","TIME_SYSTEM":"UTC","ARG_OF_PERICENTER":"114.0471","MEAN_MOTION":"15.06386946","LAUNCH_DATE":"2020-02-17","EPOCH":"2023-02-19T22:24:50.079744","COUNTRY_CODE":"US","MEAN_MOTION_DDOT":"0.0000000000000","APOAPSIS":"548.135","ECCENTRICITY":"0.00012730","EPHEMERIS_TYPE":"0","NORAD_CAT_ID":"45229","REF_FRAME":"TEME","RCS_SIZE":"LARGE","FILE":"3812679","OBJECT_TYPE":"PAYLOAD","TLE_LINE1":"1 45229U 20012BD  23050.93391296  .00010004  00000-0  68975-3 0  9992","DECAY_DATE":null,"TLE_LINE2":"2 45229  53.0535 326.4652 0001273 114.0471 246.0651 15.06386946166593","OBJECT_NAME":"STARLINK-1226","INCLINATION":"53.0535","MEAN_ELEMENT_THEORY":"SGP4","CENTER_NAME":"EARTH","SITE":"AFETR","SEMIMAJOR_AXIS":"6925.389","CLASSIFICATION_TYPE":"U"},{"FILE":"3812679","RCS_SIZE":"LARGE","NORAD_CAT_ID":"45230","REF_FRAME":"TEME","EPHEMERIS_TYPE":"0","ECCENTRICITY":"0.00013020","APOAPSIS":"548.030","MEAN_MOTION_DDOT":"0.0000000000000","COUNTRY_CODE":"US","CLASSIFICATION_TYPE":"U","SEMIMAJOR_AXIS":"6925.264","CENTER_NAME":"EARTH","SITE":"AFETR","INCLINATION":"53.0527","MEAN_ELEMENT_THEORY":"SGP4","OBJECT_NAME":"STARLINK-1227","TLE_LINE2":"2 45230  53.0527 326.4866 0001302  65.1660 294.9464 15.06427676166592","DECAY_DATE":null,"TLE_LINE1":"1 45230U 20012BE  23050.93023184  .00023165  00000-0  15678-2 0  9995","OBJECT_TYPE":"PAYLOAD","GP_ID":"226070269","OBJECT_ID":"2020-012BE","PERIOD":"95.590","RA_OF_ASC_NODE":"326.4866","MEAN_MOTION_DOT":"0.00023165","REV_AT_EPOCH":"16659","PERIAPSIS":"546.227","ELEMENT_SET_NO":"999","EPOCH":"2023-02-19T22:19:32.030976","LAUNCH_DATE":"2020-02-17","MEAN_MOTION":"15.06427676","ARG_OF_PERICENTER":"65.1660","TIME_SYSTEM":"UTC","BSTAR":"0.00156780000000","MEAN_ANOMALY":"294.9464"},{"TLE_LINE1":"1 45232U 20012BG  23050.94034342  .00015158  00000-0  10346-2 0  9996","OBJECT_TYPE":"PAYLOAD","DECAY_DATE":null,"TLE_LINE2":"2 45232  53.0525 326.4315 0001050  86.6730 273.4379 15.06388359166576","OBJECT_NAME":"STARLINK-1235","MEAN_ELEMENT_THEORY":"SGP4","INCLINATION":"53.0525","SITE":"AFETR","CENTER_NAME":"EARTH","SEMIMAJOR_AXIS":"6925.384","CLASSIFICATION_TYPE":"U","COUNTRY_CODE":"US","MEAN_MOTION_DDOT":"0.0000000000000","APOAPSIS":"547.976","ECCENTRICITY":"0.00010500","EPHEMERIS_TYPE":"0","REF_FRAME":"TEME","NORAD_CAT_ID":"45232","FILE":"3812682","RCS_SIZE":"LARGE","MEAN_ANOMALY":"273.4379","BSTAR":"0.00103460000000","TIME_SYSTEM":"UTC","ARG_OF_PERICENTER":"86.6730","MEAN_MOTION":"15.06388359","LAUNCH_DATE":"2020-02-17","EPOCH":"2023-02-19T22:34:05.671488","ELEMENT_SET_NO":"999","PERIAPSIS":"546.522","REV_AT_EPOCH":"16657","MEAN_MOTION_DOT":"0.00015158","RA_OF_ASC_NODE":"326.4315","PERIOD":"95.593","OBJECT_ID":"2020-012BG","GP_ID":"226070319"},{"GP_ID":"226070840","OBJECT_ID":"2020-012BH","PERIOD":"95.592","RA_OF_ASC_NODE":"346.5226","MEAN_MOTION_DOT":"0.00002555","ELEMENT_SET_NO":"999","PERIAPSIS":"546.201","REV_AT_EPOCH":"16630","EPOCH":"2023-02-19T22:06:14.170176","LAUNCH_DATE":"2020-02-17","MEAN_MOTION":"15.06405819","ARG_OF_PERICENTER":"100.5219","TIME_SYSTEM":"UTC","BSTAR":"0.00019035000000","MEAN_ANOMALY":"259.5932","FILE":"3812683","RCS_SIZE":"LARGE","REF_FRAME":"TEME","NORAD_CAT_ID":"45233","EPHEMERIS_TYPE":"0","ECCENTRICITY":"0.00014360","APOAPSIS":"548.190","MEAN_MOTION_DDOT":"0.0000000000000","COUNTRY_CODE":"US","CLASSIFICATION_TYPE":"U","SEMIMAJOR_AXIS":"6925.331","SITE":"AFETR","CENTER_NAME":"EARTH","MEAN_ELEMENT_THEORY":"SGP4","INCLINATION":"53.0565","OBJECT_NAME":"STARLINK-1238","TLE_LINE2":"2 45233  53.0565 346.5226 0001436 100.5219 259.5932 15.06405819166303","DECAY_DATE":null,"OBJECT_TYPE":"PAYLOAD","TLE_LINE1":"1 45233U 20012BH  23050.92099734  .00002555  00000-0  19035-3 0  9993"}];
